start=new Date('2022-09-10T00:00:00.000Z').valueOf();
sats=[{"MEAN_MOTION_DDOT":"0.0000000000000","ECCENTRICITY":"0.00020000","COUNTRY_CODE":"US","GP_ID":"212170504","MEAN_ANOMALY":"207.8309","CENTER_NAME":"EARTH","FILE":"3565505","LAUNCH_DATE":"2022-05-13","INCLINATION":"53.2162","EPHEMERIS_TYPE":"0","SITE":"AFWTR","REF_FRAME":"TEME","OBJECT_ID":"2022-051M","EPOCH":"2022-09-09T22:00:00.999936","PERIAPSIS":"538.378","CLASSIFICATION_TYPE":"U","MEAN_MOTION":"15.08834778","DECAY_DATE":null,"MEAN_ELEMENT_THEORY":"SGP4","ARG_OF_PERICENTER":"57.7495","RA_OF_ASC_NODE":"105.7910","RCS_SIZE":"LARGE","TIME_SYSTEM":"UTC","TLE_LINE1":"1 52544U 22051M   22252.91667824  .00012658  00000-0  81209-3 0  9991","PERIOD":"95.438","TLE_LINE2":"2 52544  53.2162 105.7910 0002000  57.7495 207.8309 15.08834778  1307","REV_AT_EPOCH":"130","SEMIMAJOR_AXIS":"6917.896","MEAN_MOTION_DOT":"0.00012658","NORAD_CAT_ID":"52544","APOAPSIS":"541.145","BSTAR":"0.00081209000000","ELEMENT_SET_NO":"999","OBJECT_TYPE":"PAYLOAD","OBJECT_NAME":"STARLINK-3944"},{"TLE_LINE1":"1 52545U 22051N   22252.91667824  .00012939  00000-0  82961-3 0  9990","TLE_LINE2":"2 52545  53.2165 100.7883 0001885  57.0377 335.9754 15.08837738  1303","PERIOD":"95.438","MEAN_MOTION_DOT":"0.00012939","NORAD_CAT_ID":"52545","SEMIMAJOR_AXIS":"6917.887","REV_AT_EPOCH":"130","DECAY_DATE":null,"MEAN_ELEMENT_THEORY":"SGP4","MEAN_MOTION":"15.08837738","TIME_SYSTEM":"UTC","ARG_OF_PERICENTER":"57.0377","RA_OF_ASC_NODE":"100.7883","RCS_SIZE":"LARGE","BSTAR":"0.00082961000000","ELEMENT_SET_NO":"999","OBJECT_NAME":"STARLINK-3939","OBJECT_TYPE":"PAYLOAD","APOAPSIS":"541.056","MEAN_ANOMALY":"335.9754","CENTER_NAME":"EARTH","FILE":"3565505","ECCENTRICITY":"0.00018850","COUNTRY_CODE":"US","MEAN_MOTION_DDOT":"0.0000000000000","GP_ID":"212169439","EPOCH":"2022-09-09T22:00:00.999936","CLASSIFICATION_TYPE":"U","PERIAPSIS":"538.448","REF_FRAME":"TEME","SITE":"AFWTR","INCLINATION":"53.2165","LAUNCH_DATE":"2022-05-13","EPHEMERIS_TYPE":"0","OBJECT_ID":"2022-051N"},{"NORAD_CAT_ID":"52546","MEAN_MOTION_DOT":"-0.00024204","SEMIMAJOR_AXIS":"6917.810","REV_AT_EPOCH":"130","TLE_LINE2":"2 52546  53.2176 100.7713 0001900  55.1757  52.6203 15.08862939  1300","PERIOD":"95.436","TLE_LINE1":"1 52546U 22051P   22252.91667824 -.00024204  00000-0 -15068-2 0  9994","TIME_SYSTEM":"UTC","RA_OF_ASC_NODE":"100.7713","RCS_SIZE":"LARGE","ARG_OF_PERICENTER":"55.1757","DECAY_DATE":null,"MEAN_ELEMENT_THEORY":"SGP4","MEAN_MOTION":"15.08862939","OBJECT_NAME":"STARLINK-3948","OBJECT_TYPE":"PAYLOAD","ELEMENT_SET_NO":"999","BSTAR":"-0.00150680000000","APOAPSIS":"540.990","FILE":"3565505","CENTER_NAME":"EARTH","MEAN_ANOMALY":"52.6203","GP_ID":"212170159","COUNTRY_CODE":"US","ECCENTRICITY":"0.00019000","MEAN_MOTION_DDOT":"0.0000000000000","CLASSIFICATION_TYPE":"U","PERIAPSIS":"538.361","EPOCH":"2022-09-09T22:00:00.999936","OBJECT_ID":"2022-051P","REF_FRAME":"TEME","SITE":"AFWTR","EPHEMERIS_TYPE":"0","LAUNCH_DATE":"2022-05-13","INCLINATION":"53.2176"},{"APOAPSIS":"541.224","OBJECT_TYPE":"PAYLOAD","OBJECT_NAME":"STARLINK-3869","BSTAR":"0.00084687000000","ELEMENT_SET_NO":"999","ARG_OF_PERICENTER":"57.5204","RCS_SIZE":"LARGE","RA_OF_ASC_NODE":"105.7869","TIME_SYSTEM":"UTC","MEAN_MOTION":"15.08831233","DECAY_DATE":null,"MEAN_ELEMENT_THEORY":"SGP4","SEMIMAJOR_AXIS":"6917.907","REV_AT_EPOCH":"130","MEAN_MOTION_DOT":"0.00013212","NORAD_CAT_ID":"52547","TLE_LINE1":"1 52547U 22051Q   22252.91667824  .00013212  00000-0  84687-3 0  9994","TLE_LINE2":"2 52547  53.2153 105.7869 0002099  57.5204 188.0497 15.08831233  1308","PERIOD":"95.438","OBJECT_ID":"2022-051Q","LAUNCH_DATE":"2022-05-13","EPHEMERIS_TYPE":"0","INCLINATION":"53.2153","SITE":"AFWTR","REF_FRAME":"TEME","PERIAPSIS":"538.320","CLASSIFICATION_TYPE":"U","EPOCH":"2022-09-09T22:00:00.999936","GP_ID":"212169591","MEAN_MOTION_DDOT":"0.0000000000000","ECCENTRICITY":"0.00020990","COUNTRY_CODE":"US","CENTER_NAME":"EARTH","FILE":"3565505","MEAN_ANOMALY":"188.0497"},{"SEMIMAJOR_AXIS":"6917.866","REV_AT_EPOCH":"130","MEAN_MOTION_DOT":"-0.00018023","NORAD_CAT_ID":"52548","TLE_LINE1":"1 52548U 22051R   22252.91667824 -.00018023  00000-0 -11170-2 0  9998","PERIOD":"95.437","TLE_LINE2":"2 52548  53.2176 100.7671 0001382  65.5129 127.5777 15.08844668  1304","ARG_OF_PERICENTER":"65.5129","RCS_SIZE":"LARGE","RA_OF_ASC_NODE":"100.7671","TIME_SYSTEM":"UTC","MEAN_MOTION":"15.08844668","DECAY_DATE":null,"MEAN_ELEMENT_THEORY":"SGP4","OBJECT_TYPE":"PAYLOAD","OBJECT_NAME":"STARLINK-3931","BSTAR":"-0.00111700000000","ELEMENT_SET_NO":"999","APOAPSIS":"540.687","FILE":"3565505","CENTER_NAME":"EARTH","MEAN_ANOMALY":"127.5777","GP_ID":"212170310","MEAN_MOTION_DDOT":"0.0000000000000","ECCENTRICITY":"0.00013820","COUNTRY_CODE":"US","PERIAPSIS":"538.775","CLASSIFICATION_TYPE":"U","EPOCH":"2022-09-09T22:00:00.999936","OBJECT_ID":"2022-051R","INCLINATION":"53.2176","LAUNCH_DATE":"2022-05-13","EPHEMERIS_TYPE":"0","SITE":"AFWTR","REF_FRAME":"TEME"},{"APOAPSIS":"540.974","BSTAR":"0.00074255000000","ELEMENT_SET_NO":"999","OBJECT_TYPE":"PAYLOAD","OBJECT_NAME":"STARLINK-3935","MEAN_MOTION":"15.08829748","DECAY_DATE":null,"MEAN_ELEMENT_THEORY":"SGP4","RA_OF_ASC_NODE":"100.7677","RCS_SIZE":"LARGE","ARG_OF_PERICENTER":"58.8466","TIME_SYSTEM":"UTC","TLE_LINE2":"2 52549  53.2159 100.7677 0001730  58.8466  34.2280 15.08829748  1303","PERIOD":"95.438","TLE_LINE1":"1 52549U 22051S   22252.91667824  .00011546  00000-0  74255-3 0  9994","REV_AT_EPOCH":"130","SEMIMAJOR_AXIS":"6917.912","NORAD_CAT_ID":"52549","MEAN_MOTION_DOT":"0.00011546","INCLINATION":"53.2159","LAUNCH_DATE":"2022-05-13","EPHEMERIS_TYPE":"0","REF_FRAME":"TEME","SITE":"AFWTR","OBJECT_ID":"2022-051S","EPOCH":"2022-09-09T22:00:00.999936","PERIAPSIS":"538.580","CLASSIFICATION_TYPE":"U","MEAN_MOTION_DDOT":"0.0000000000000","COUNTRY_CODE":"US","ECCENTRICITY":"0.00017300","GP_ID":"212169854","MEAN_ANOMALY":"34.2280","CENTER_NAME":"EARTH","FILE":"3565505"},{"ELEMENT_SET_NO":"999","BSTAR":"0.00090240000000","OBJECT_NAME":"STARLINK-3965","OBJECT_TYPE":"PAYLOAD","APOAPSIS":"540.933","TLE_LINE1":"1 52550U 22051T   22252.91667824  .00014104  00000-0  90240-3 0  9991","PERIOD":"95.437","TLE_LINE2":"2 52550  53.2170 100.7676 0001728  55.0657  97.9760 15.08842543  1302","MEAN_MOTION_DOT":"0.00014104","NORAD_CAT_ID":"52550","SEMIMAJOR_AXIS":"6917.873","REV_AT_EPOCH":"130","MEAN_ELEMENT_THEORY":"SGP4","DECAY_DATE":null,"MEAN_MOTION":"15.08842543","TIME_SYSTEM":"UTC","ARG_OF_PERICENTER":"55.0657","RCS_SIZE":"LARGE","RA_OF_ASC_NODE":"100.7676","EPOCH":"2022-09-09T22:00:00.999936","CLASSIFICATION_TYPE":"U","PERIAPSIS":"538.542","REF_FRAME":"TEME","SITE":"AFWTR","EPHEMERIS_TYPE":"0","LAUNCH_DATE":"2022-05-13","INCLINATION":"53.2170","OBJECT_ID":"2022-051T","MEAN_ANOMALY":"97.9760","FILE":"3565505","CENTER_NAME":"EARTH","ECCENTRICITY":"0.00017280","COUNTRY_CODE":"US","MEAN_MOTION_DDOT":"0.0000000000000","GP_ID":"212169744"},{"GP_ID":"212140983","COUNTRY_CODE":"US","ECCENTRICITY":"0.00018110","MEAN_MOTION_DDOT":"0.0000000000000","CENTER_NAME":"EARTH","FILE":"3565332","MEAN_ANOMALY":"48.9429","OBJECT_ID":"2022-051U","SITE":"AFWTR","REF_FRAME":"TEME","EPHEMERIS_TYPE":"0","LAUNCH_DATE":"2022-05-13","INCLINATION":"53.2171","CLASSIFICATION_TYPE":"U","PERIAPSIS":"538.468","EPOCH":"2022-09-09T22:00:00.999936","TIME_SYSTEM":"UTC","RA_OF_ASC_NODE":"100.7690","RCS_SIZE":"LARGE","ARG_OF_PERICENTER":"64.1434","DECAY_DATE":null,"MEAN_ELEMENT_THEORY":"SGP4","MEAN_MOTION":"15.08848116","NORAD_CAT_ID":"52551","MEAN_MOTION_DOT":"-0.00024139","REV_AT_EPOCH":"1876","SEMIMAJOR_AXIS":"6917.856","PERIOD":"95.437","TLE_LINE2":"2 52551  53.2171 100.7690 0001811  64.1434  48.9429 15.08848116 18765","TLE_LINE1":"1 52551U 22051U   22252.91667824 -.00024139  00000-0 -15033-2 0  9999","APOAPSIS":"540.973","OBJECT_NAME":"STARLINK-3969","OBJECT_TYPE":"PAYLOAD","ELEMENT_SET_NO":"999","BSTAR":"-0.00150330000000"},{"PERIAPSIS":"538.525","CLASSIFICATION_TYPE":"U","EPOCH":"2022-09-09T22:00:00.999936","OBJECT_ID":"2022-051V","LAUNCH_DATE":"2022-05-13","EPHEMERIS_TYPE":"0","INCLINATION":"53.2179","SITE":"AFWTR","REF_FRAME":"TEME","FILE":"3565332","CENTER_NAME":"EARTH","MEAN_ANOMALY":"158.5364","GP_ID":"212141415","MEAN_MOTION_DDOT":"0.0000000000000","COUNTRY_CODE":"US","ECCENTRICITY":"0.00017940","OBJECT_TYPE":"PAYLOAD","OBJECT_NAME":"STARLINK-3966","BSTAR":"0.00098084000000","ELEMENT_SET_NO":"999","APOAPSIS":"541.007","SEMIMAJOR_AXIS":"6917.901","REV_AT_EPOCH":"1877","NORAD_CAT_ID":"52552","MEAN_MOTION_DOT":"0.00015354","PERIOD":"95.438","TLE_LINE2":"2 52552  53.2179 100.7679 0001794  54.5481 158.5364 15.08833150 18775","TLE_LINE1":"1 52552U 22051V   22252.91667824  .00015354  00000-0  98084-3 0  9995","RCS_SIZE":"LARGE","RA_OF_ASC_NODE":"100.7679","ARG_OF_PERICENTER":"54.5481","TIME_SYSTEM":"UTC","MEAN_MOTION":"15.08833150","DECAY_DATE":null,"MEAN_ELEMENT_THEORY":"SGP4"},{"APOAPSIS":"540.913","OBJECT_TYPE":"PAYLOAD","OBJECT_NAME":"STARLINK-3858","BSTAR":"-0.00042922000000","ELEMENT_SET_NO":"999","RA_OF_ASC_NODE":"100.7684","RCS_SIZE":"LARGE","ARG_OF_PERICENTER":"53.5339","TIME_SYSTEM":"UTC","MEAN_MOTION":"15.08835962","DECAY_DATE":null,"MEAN_ELEMENT_THEORY":"SGP4","SEMIMAJOR_AXIS":"6917.893","REV_AT_EPOCH":"1876","NORAD_CAT_ID":"52553","MEAN_MOTION_DOT":"-0.00007112","PERIOD":"95.438","TLE_LINE2":"2 52553  53.2169 100.7684 0001670  53.5339  79.5662 15.08835962 18760","TLE_LINE1":"1 52553U 22051W   22252.91667824 -.00007112  00000-0 -42922-3 0  9991","OBJECT_ID":"2022-051W","LAUNCH_DATE":"2022-05-13","INCLINATION":"53.2169","EPHEMERIS_TYPE":"0","REF_FRAME":"TEME","SITE":"AFWTR","PERIAPSIS":"538.602","CLASSIFICATION_TYPE":"U","EPOCH":"2022-09-09T22:00:00.999936","GP_ID":"212140984","MEAN_MOTION_DDOT":"0.0000000000000","COUNTRY_CODE":"US","ECCENTRICITY":"0.00016700","FILE":"3565332","CENTER_NAME":"EARTH","MEAN_ANOMALY":"79.5662"}];
